[{"OBJECT_NAME":"STARLINK-4420","OBJECT_ID":"2022-105G","EPOCH":"2026-03-09T16:08:00.093120","MEAN_MOTION":15.05644598,"ECCENTRICITY":0.00020924,"INCLINATION":97.6024,"RA_OF_ASC_NODE":311.1617,"ARG_OF_PERICENTER":91.2741,"MEAN_ANOMALY":268.8726,"EPHEMERIS_TYPE":0,"CLASSIFICATION_TYPE":"U","NORAD_CAT_ID":53654,"ELEMENT_SET_NO":999,"REV_AT_EPOCH":19329,"BSTAR":3.3005245e-5,"MEAN_MOTION_DOT":4.15e-6,"MEAN_MOTION_DDOT":0},{"OBJECT_NAME":"JILIN-01 KUANFU 02B 5","OBJECT_ID":"2024-169E","EPOCH":"2026-03-09T22:46:28.718400","MEAN_MOTION":15.09244096,"ECCENTRICITY":0.00111722,"INCLINATION":97.556,"RA_OF_ASC_NODE":160.0628,"ARG_OF_PERICENTER":294.0678,"MEAN_ANOMALY":65.9381,"EPHEMERIS_TYPE":0,"CLASSIFICATION_TYPE":"U","NORAD_CAT_ID":61193,"ELEMENT_SET_NO":999,"REV_AT_EPOCH":8086,"BSTAR":0.00034816655,"MEAN_MOTION_DOT":5.486e-5,"MEAN_MOTION_DDOT":0}]
